TITAN 4B R/B            
1 26474U 00047B   25308.81864210  .00004441  00000+0  28771-3 0  9992
2 26474  67.9921  31.3243 0042618 188.3777 171.6666 15.08357138374072
ENVISAT                 
1 27386U 02009A   25308.86356576  .00000151  00000+0  62906-4 0  9994
2 27386  98.3536 260.5767 0001341  84.1333 300.2576 14.38977206241227
IDEFIX & ARIANE 42P R/B 
1 27422U 02021B   25308.75399860  .00000339  00000+0  14556-3 0  9995
2 27422  98.5726 243.9499 0011400 190.1585 169.9369 14.30906716226157
AQUA                    
1 27424U 02022A   25308.96847402  .00001250  00000+0  26099-3 0  9999
2 27424  98.3978 269.2488 0001145  49.0309 351.5039 14.61667159250515
CZ-4B R/B               
1 27432U 02024C   25308.60839758  .00000061  00000+0  54372-4 0  9991
2 27432  98.9060 357.5023 0050455  19.3782 133.7811 14.14515825211550
MIDORI II (ADEOS-II)    
1 27597U 02056A   25308.84021522  .00000329  00000+0  14743-3 0  9990
2 27597  98.7573 261.6103 0001672  45.3355 314.7963 14.29164826192469
H-2A R/B                
1 27601U 02056E   25308.84738097  .00000313  00000+0  12446-3 0  9999
2 27601  98.3005 269.1253 0070358 172.6476 217.6682 14.33634218196224
CZ-4B R/B               
1 28059U 03049C   25308.70091993  .00000488  00000+0  12391-3 0  9994
2 28059  98.6761 293.8334 0047115 252.8555 106.7479 14.54853697168422
CZ-2C R/B               
1 28222U 04012C   25308.87204294  .00031901  00000+0  52412-3 0  9997
2 28222  97.7496 358.4553 0020210  52.0064 308.3009 15.52109972184844
SL-16 R/B               
1 28353U 04021B   25308.93119330 -.00000063  00000+0 -77991-5 0  9993
2 28353  70.9971 134.3065 0006925 240.2326 119.8108 14.14569468105191
CZ-4B R/B               
1 28415U 04035C   25308.81451392  .00008004  00000+0  30409-3 0  9993
2 28415  97.3661 339.6789 0035450  53.1144 307.3335 15.26476678160849
CZ-2C R/B               
1 28480U 04046B   25308.74287005  .00000175  00000+0  79818-4 0  9996
2 28480  98.1951 226.4899 0139816 163.8751 196.6948 14.26914780 90684
